{
    "links": {
        "self": "http://www.neowsapp.com/rest/v1/neo/3802016?api_key=iIulBulltgU6a56xZRHN4H3l9WmuAYTsLGpBGhQ2"
    },
    "id": "3802016",
    "neo_reference_id": "3802016",
    "name": "(2018 FJ2)",
    "designation": "2018 FJ2",
    "nasa_jpl_url": "http://ssd.jpl.nasa.gov/sbdb.cgi?sstr=3802016",
    "absolute_magnitude_h": 24.5,
    "estimated_diameter": {
        "kilometers": {
            "estimated_diameter_min": 0.0334622374,
            "estimated_diameter_max": 0.0748238376
        },
        "meters": {
            "estimated_diameter_min": 33.4622374455,
            "estimated_diameter_max": 74.8238376074
        },
        "miles": {
            "estimated_diameter_min": 0.0207924639,
            "estimated_diameter_max": 0.0464933628
        },
        "feet": {
            "estimated_diameter_min": 109.7842471007,
            "estimated_diameter_max": 245.4850393757
        }
    },
    "is_potentially_hazardous_asteroid": false,
    "close_approach_data": [
        {
            "close_approach_date": "2005-03-16",
            "close_approach_date_full": "2005-Mar-16 06:44",
            "epoch_date_close_approach": 1110955440000,
            "relative_velocity": {
                "kilometers_per_second": "11.7107422479",
                "kilometers_per_hour": "42158.6720925304",
                "miles_per_hour": "26195.7593343837"
            },
            "miss_distance": {
                "astronomical": "0.1126836875",
                "lunar": "43.8339544375",
                "kilometers": "16857239.633745625",
                "miles": "10474602.994614625"
            },
            "orbiting_body": "Earth"
        },
        {
            "close_approach_date": "2018-03-16",
            "close_approach_date_full": "2018-Mar-16 15:51",
            "epoch_date_close_approach": 1521215460000,
            "relative_velocity": {
                "kilometers_per_second": "11.7809218465",
                "kilometers_per_hour": "42411.3186472844",
                "miles_per_hour": "26352.744078364"
            },
            "miss_distance": {
                "astronomical": "0.1149166896",
                "lunar": "44.7025922544",
                "kilometers": "17191291.991611152",
                "miles": "10682173.5046198176"
            },
            "orbiting_body": "Earth"
        },
        {
            "close_approach_date": "2021-08-22",
            "close_approach_date_full": "2021-Aug-22 10:45",
            "epoch_date_close_approach": 1629629100000,
            "relative_velocity": {
                "kilometers_per_second": "11.3917576387",
                "kilometers_per_hour": "41010.3274993405",
                "miles_per_hour": "25482.2226620208"
            },
            "miss_distance": {
                "astronomical": "0.4461842178",
                "lunar": "173.5656607242",
                "kilometers": "66748208.610496086",
                "miles": "41475413.5900785468"
            },
            "orbiting_body": "Earth"
        }
    ],
    "orbital_data": {
        "orbit_id": "3",
        "orbit_determination_date": "2018-04-02 06:36:30",
        "first_observation_date": "2018-03-18",
        "last_observation_date": "2018-03-30",
        "data_arc_in_days": 12,
        "observations_used": 37,
        "orbit_uncertainty": "8",
        "minimum_orbit_intersection": ".112622",
        "jupiter_tisserand_invariant": "4.981",
        "epoch_osculation": "2458206.5",
        "eccentricity": ".1347868557233075",
        "semi_major_axis": "1.277434414739413",
        "inclination": "22.41168796135381",
        "ascending_node_longitude": "174.2804500389761",
        "orbital_period": "527.3589791863221",
        "perihelion_distance": "1.105253046583944",
        "perihelion_argument": "10.6996222121156",
        "aphelion_distance": "1.449615782894882",
        "perihelion_time": "2458202.980741331081",
        "mean_anomaly": "2.402411205296303",
        "mean_motion": ".6826469524714546",
        "equinox": "J2000",
        "orbit_class": {
            "orbit_class_type": "AMO",
            "orbit_class_description": "Near-Earth asteroid orbits similar to that of 1221 Amor",
            "orbit_class_range": "1.017 AU < q (perihelion) < 1.3 AU"
        }
    },
    "is_sentry_object": false
}